NORAD_CAT_ID,OBJECT_NAME,OBJECT_TYPE,EPOCH,MEAN_MOTION,ECCENTRICITY,INCLINATION,RA_OF_ASC_NODE,ARG_OF_PERICENTER,MEAN_ANOMALY,BSTAR,MEAN_MOTION_DOT,MEAN_MOTION_DDOT,TLE_LINE0,TLE_LINE1,TLE_LINE2,SEMIMAJOR_AXIS,PERIOD,APOGEE,PERIGEE,DECAYED
53833.0,STARLINK-4771,PAYLOAD,2024-08-20 11:21:03,15.08850053,0.0001501,53.2185,325.8456,108.7574,251.3581,0.00016397,2.323e-05,0.0,0 STARLINK-4771,1 53833U 22114R   24233.47295494  .00002323  00000-0  16397-3 0  9999,2 53833  53.2185 325.8456 0001501 108.7574 251.3581 15.08850053107356,6917.85,95.437,540.753,538.676,0.0
53833.0,STARLINK-4771,PAYLOAD,2024-08-21 11:11:50,15.08837041,0.0001621,53.2183,321.3862,109.9054,250.2113,9.5819e-05,1.237e-05,0.0,0 STARLINK-4771,1 53833U 22114R   24234.46656132  .00001237  00000-0  95819-4 0  9999,2 53833  53.2183 321.3862 0001621 109.9054 250.2113 15.08837041106962,6917.889,95.438,540.876,538.633,0.0
